[{"OBJECT_NAME":"KINEIS-2A","OBJECT_ID":"2025-028E","EPOCH":"2026-03-09T16:30:13.930272","MEAN_MOTION":14.72099682,"ECCENTRICITY":0.00031402,"INCLINATION":98.0771,"RA_OF_ASC_NODE":124.1949,"ARG_OF_PERICENTER":197.3611,"MEAN_ANOMALY":162.7489,"EPHEMERIS_TYPE":0,"CLASSIFICATION_TYPE":"U","NORAD_CAT_ID":62932,"ELEMENT_SET_NO":999,"REV_AT_EPOCH":5796,"BSTAR":0.00024267113,"MEAN_MOTION_DOT":1.477e-5,"MEAN_MOTION_DDOT":0},{"OBJECT_NAME":"JIELONG-3 R\/B","OBJECT_ID":"2023-190C","EPOCH":"2026-03-09T21:26:26.113920","MEAN_MOTION":15.18151254,"ECCENTRICITY":0.02497151,"INCLINATION":86.5597,"RA_OF_ASC_NODE":295.7177,"ARG_OF_PERICENTER":271.8036,"MEAN_ANOMALY":85.4623,"EPHEMERIS_TYPE":0,"CLASSIFICATION_TYPE":"U","NORAD_CAT_ID":58507,"ELEMENT_SET_NO":999,"REV_AT_EPOCH":12333,"BSTAR":0.00045620602,"MEAN_MOTION_DOT":0.00021606,"MEAN_MOTION_DDOT":0}]
